start=new Date('2023-03-15T00:00:00.000Z').valueOf();
sats=[{"MEAN_MOTION_DDOT":"0.0000000000000","NORAD_CAT_ID":"53983","OBJECT_TYPE":"PAYLOAD","ECCENTRICITY":"0.00013580","DECAY_DATE":null,"CLASSIFICATION_TYPE":"U","TLE_LINE1":"1 53983U 22125V   23073.37407042  .00003210  00000-0  21968-3 0  9997","MEAN_ANOMALY":"274.5358","FILE":"3860373","INCLINATION":"53.2201","PERIAPSIS":"538.797","PERIOD":"95.437","REF_FRAME":"TEME","EPOCH":"2023-03-14T08:58:39.684288","APOAPSIS":"540.676","EPHEMERIS_TYPE":"0","REV_AT_EPOCH":"2485","BSTAR":"0.00021968000000","OBJECT_ID":"2022-125V","TIME_SYSTEM":"UTC","MEAN_MOTION":"15.08842917","MEAN_ELEMENT_THEORY":"SGP4","GP_ID":"228078708","COUNTRY_CODE":"US","ELEMENT_SET_NO":"999","ARG_OF_PERICENTER":"85.5790","OBJECT_NAME":"STARLINK-5103","TLE_LINE2":"2 53983  53.2201  63.0570 0001358  85.5790 274.5358 15.08842917 24853","RCS_SIZE":"LARGE","SITE":"AFWTR","RA_OF_ASC_NODE":"63.0570","CENTER_NAME":"EARTH","MEAN_MOTION_DOT":"0.00003210","SEMIMAJOR_AXIS":"6917.871","LAUNCH_DATE":"2022-10-05"},{"SITE":"AFWTR","RCS_SIZE":"LARGE","TLE_LINE2":"2 53984  53.2168  73.2340 0001378 100.6848 259.4299 15.08843512 24712","OBJECT_NAME":"STARLINK-5142","GP_ID":"228078960","MEAN_ELEMENT_THEORY":"SGP4","COUNTRY_CODE":"US","ELEMENT_SET_NO":"999","ARG_OF_PERICENTER":"100.6848","LAUNCH_DATE":"2022-10-05","SEMIMAJOR_AXIS":"6917.870","MEAN_MOTION_DOT":"0.00002259","CENTER_NAME":"EARTH","RA_OF_ASC_NODE":"73.2340","REV_AT_EPOCH":"2471","EPHEMERIS_TYPE":"0","MEAN_MOTION":"15.08843512","TIME_SYSTEM":"UTC","OBJECT_ID":"2022-125W","BSTAR":"0.00015998000000","PERIOD":"95.437","PERIAPSIS":"538.781","MEAN_ANOMALY":"259.4299","FILE":"3860373","INCLINATION":"53.2168","APOAPSIS":"540.688","REF_FRAME":"TEME","EPOCH":"2023-03-14T09:45:04.786560","OBJECT_TYPE":"PAYLOAD","ECCENTRICITY":"0.00013780","NORAD_CAT_ID":"53984","MEAN_MOTION_DDOT":"0.0000000000000","TLE_LINE1":"1 53984U 22125W   23073.40630540  .00002259  00000-0  15998-3 0  9991","CLASSIFICATION_TYPE":"U","DECAY_DATE":null},{"APOAPSIS":"540.575","EPOCH":"2023-03-14T06:44:55.492512","REF_FRAME":"TEME","PERIOD":"95.437","PERIAPSIS":"538.854","INCLINATION":"53.2179","FILE":"3860373","MEAN_ANOMALY":"269.9037","CLASSIFICATION_TYPE":"U","TLE_LINE1":"1 53985U 22125X   23073.28119783  .00000557  00000-0  53076-4 0  9998","DECAY_DATE":null,"NORAD_CAT_ID":"53985","ECCENTRICITY":"0.00012440","OBJECT_TYPE":"PAYLOAD","MEAN_MOTION_DDOT":"0.0000000000000","LAUNCH_DATE":"2022-10-05","SEMIMAJOR_AXIS":"6917.850","MEAN_MOTION_DOT":"0.00000557","CENTER_NAME":"EARTH","RA_OF_ASC_NODE":"73.8706","SITE":"AFWTR","TLE_LINE2":"2 53985  53.2179  73.8706 0001244  90.2098 269.9037 15.08850005 24698","RCS_SIZE":"LARGE","GP_ID":"228079710","ELEMENT_SET_NO":"999","COUNTRY_CODE":"US","ARG_OF_PERICENTER":"90.2098","MEAN_ELEMENT_THEORY":"SGP4","OBJECT_NAME":"STARLINK-5147","MEAN_MOTION":"15.08850005","BSTAR":"0.00005307600000","TIME_SYSTEM":"UTC","OBJECT_ID":"2022-125X","EPHEMERIS_TYPE":"0","REV_AT_EPOCH":"2469"},{"MEAN_MOTION":"15.08841755","BSTAR":"0.00022223000000","TIME_SYSTEM":"UTC","OBJECT_ID":"2022-125Y","EPHEMERIS_TYPE":"0","REV_AT_EPOCH":"2489","MEAN_MOTION_DOT":"0.00003251","CENTER_NAME":"EARTH","RA_OF_ASC_NODE":"61.4851","SEMIMAJOR_AXIS":"6917.875","LAUNCH_DATE":"2022-10-05","RCS_SIZE":"LARGE","TLE_LINE2":"2 53986  53.2194  61.4851 0001445  85.0911 275.0247 15.08841755 24894","ARG_OF_PERICENTER":"85.0911","GP_ID":"228110902","COUNTRY_CODE":"US","ELEMENT_SET_NO":"999","MEAN_ELEMENT_THEORY":"SGP4","OBJECT_NAME":"STARLINK-5119","SITE":"AFWTR","CLASSIFICATION_TYPE":"U","TLE_LINE1":"1 53986U 22125Y   23073.69053315  .00003251  00000-0  22223-3 0  9995","DECAY_DATE":null,"NORAD_CAT_ID":"53986","ECCENTRICITY":"0.00014450","OBJECT_TYPE":"PAYLOAD","MEAN_MOTION_DDOT":"0.0000000000000","EPOCH":"2023-03-14T16:34:22.064160","REF_FRAME":"TEME","APOAPSIS":"540.740","PERIAPSIS":"538.740","FILE":"3860643","MEAN_ANOMALY":"275.0247","INCLINATION":"53.2194","PERIOD":"95.437"},{"APOAPSIS":"540.734","EPOCH":"2023-03-14T09:50:22.929504","REF_FRAME":"TEME","PERIOD":"95.437","PERIAPSIS":"538.678","FILE":"3860373","MEAN_ANOMALY":"255.6405","INCLINATION":"53.2162","CLASSIFICATION_TYPE":"U","TLE_LINE1":"1 53987U 22125Z   23073.40998761  .00005310  00000-0  35137-3 0  9994","DECAY_DATE":null,"NORAD_CAT_ID":"53987","OBJECT_TYPE":"PAYLOAD","ECCENTRICITY":"0.00014860","MEAN_MOTION_DDOT":"0.0000000000000","LAUNCH_DATE":"2022-10-05","SEMIMAJOR_AXIS":"6917.841","MEAN_MOTION_DOT":"0.00005310","CENTER_NAME":"EARTH","RA_OF_ASC_NODE":"73.2538","SITE":"AFWTR","RCS_SIZE":"LARGE","TLE_LINE2":"2 53987  53.2162  73.2538 0001486 104.4752 255.6405 15.08853035 24712","GP_ID":"228078209","COUNTRY_CODE":"US","ELEMENT_SET_NO":"999","ARG_OF_PERICENTER":"104.4752","MEAN_ELEMENT_THEORY":"SGP4","OBJECT_NAME":"STARLINK-5112","MEAN_MOTION":"15.08853035","BSTAR":"0.00035137000000","TIME_SYSTEM":"UTC","OBJECT_ID":"2022-125Z","EPHEMERIS_TYPE":"0","REV_AT_EPOCH":"2471"},{"EPHEMERIS_TYPE":"0","REV_AT_EPOCH":"2470","MEAN_MOTION":"15.08820534","BSTAR":"0.00028769000000","TIME_SYSTEM":"UTC","OBJECT_ID":"2022-125AA","SITE":"AFWTR","RCS_SIZE":"LARGE","TLE_LINE2":"2 53988  53.2148  73.2088 0001423 131.2178 228.8937 15.08820534 24707","GP_ID":"228079460","COUNTRY_CODE":"US","MEAN_ELEMENT_THEORY":"SGP4","ELEMENT_SET_NO":"999","ARG_OF_PERICENTER":"131.2178","OBJECT_NAME":"STARLINK-5113","LAUNCH_DATE":"2022-10-05","SEMIMAJOR_AXIS":"6917.940","MEAN_MOTION_DOT":"0.00004291","CENTER_NAME":"EARTH","RA_OF_ASC_NODE":"73.2088","NORAD_CAT_ID":"53988","OBJECT_TYPE":"PAYLOAD","ECCENTRICITY":"0.00014230","MEAN_MOTION_DDOT":"0.0000000000000","CLASSIFICATION_TYPE":"U","TLE_LINE1":"1 53988U 22125AA  23073.40263862  .00004291  00000-0  28769-3 0  9992","DECAY_DATE":null,"PERIOD":"95.439","PERIAPSIS":"538.820","FILE":"3860373","INCLINATION":"53.2148","MEAN_ANOMALY":"228.8937","APOAPSIS":"540.789","EPOCH":"2023-03-14T09:39:47.976768","REF_FRAME":"TEME"},{"REF_FRAME":"TEME","EPOCH":"2023-03-14T17:22:09.838272","APOAPSIS":"540.538","PERIAPSIS":"538.908","INCLINATION":"53.2180","FILE":"3860643","MEAN_ANOMALY":"260.7650","PERIOD":"95.437","CLASSIFICATION_TYPE":"U","TLE_LINE1":"1 53989U 22125AB  23073.72372498  .00001599  00000-0  11850-3 0  9995","DECAY_DATE":null,"NORAD_CAT_ID":"53989","ECCENTRICITY":"0.00011780","OBJECT_TYPE":"PAYLOAD","MEAN_MOTION_DDOT":"0.0000000000000","MEAN_MOTION_DOT":"0.00001599","CENTER_NAME":"EARTH","RA_OF_ASC_NODE":"71.6640","LAUNCH_DATE":"2022-10-05","SEMIMAJOR_AXIS":"6917.858","TLE_LINE2":"2 53989  53.2180  71.6640 0001178  99.3475 260.7650 15.08847441 24760","RCS_SIZE":"LARGE","ARG_OF_PERICENTER":"99.3475","GP_ID":"228110153","COUNTRY_CODE":"US","ELEMENT_SET_NO":"999","MEAN_ELEMENT_THEORY":"SGP4","OBJECT_NAME":"STARLINK-5115","SITE":"AFWTR","MEAN_MOTION":"15.08847441","BSTAR":"0.00011850000000","TIME_SYSTEM":"UTC","OBJECT_ID":"2022-125AB","EPHEMERIS_TYPE":"0","REV_AT_EPOCH":"2476"},{"CLASSIFICATION_TYPE":"U","TLE_LINE1":"1 53990U 22125AC  23073.73013960  .00009313  00000-0  60245-3 0  9998","DECAY_DATE":null,"NORAD_CAT_ID":"53990","OBJECT_TYPE":"PAYLOAD","ECCENTRICITY":"0.00015840","MEAN_MOTION_DDOT":"0.0000000000000","APOAPSIS":"540.837","REF_FRAME":"TEME","EPOCH":"2023-03-14T17:31:24.061440","PERIOD":"95.437","PERIAPSIS":"538.645","FILE":"3860643","MEAN_ANOMALY":"268.4814","INCLINATION":"53.2150","MEAN_MOTION":"15.08841432","BSTAR":"0.00060245000000","TIME_SYSTEM":"UTC","OBJECT_ID":"2022-125AC","EPHEMERIS_TYPE":"0","REV_AT_EPOCH":"2475","SEMIMAJOR_AXIS":"6917.876","LAUNCH_DATE":"2022-10-05","CENTER_NAME":"EARTH","MEAN_MOTION_DOT":"0.00009313","RA_OF_ASC_NODE":"71.7008","SITE":"AFWTR","TLE_LINE2":"2 53990  53.2150  71.7008 0001584  91.6360 268.4814 15.08841432 24757","RCS_SIZE":"LARGE","COUNTRY_CODE":"US","GP_ID":"228110403","ELEMENT_SET_NO":"999","MEAN_ELEMENT_THEORY":"SGP4","ARG_OF_PERICENTER":"91.6360","OBJECT_NAME":"STARLINK-5075"},{"APOAPSIS":"545.655","REF_FRAME":"TEME","EPOCH":"2023-03-14T15:50:34.120896","PERIOD":"95.541","INCLINATION":"53.2209","FILE":"3860643","MEAN_ANOMALY":"269.5105","PERIAPSIS":"543.823","DECAY_DATE":null,"TLE_LINE1":"1 53991U 22125AD  23073.66011714  .00015506  00000-0  10349-2 0  9996","CLASSIFICATION_TYPE":"U","MEAN_MOTION_DDOT":"0.0000000000000","ECCENTRICITY":"0.00013230","OBJECT_TYPE":"PAYLOAD","NORAD_CAT_ID":"53991","LAUNCH_DATE":"2022-10-05","SEMIMAJOR_AXIS":"6922.874","RA_OF_ASC_NODE":"59.1681","CENTER_NAME":"EARTH","MEAN_MOTION_DOT":"0.00015506","SITE":"AFWTR","OBJECT_NAME":"STARLINK-5118","GP_ID":"228111654","COUNTRY_CODE":"US","ELEMENT_SET_NO":"999","MEAN_ELEMENT_THEORY":"SGP4","ARG_OF_PERICENTER":"90.6038","RCS_SIZE":"LARGE","TLE_LINE2":"2 53991  53.2209  59.1681 0001323  90.6038 269.5105 15.07207818 24929","TIME_SYSTEM":"UTC","OBJECT_ID":"2022-125AD","BSTAR":"0.00103490000000","MEAN_MOTION":"15.07207818","REV_AT_EPOCH":"2492","EPHEMERIS_TYPE":"0"},{"APOAPSIS":"540.700","REF_FRAME":"TEME","EPOCH":"2023-03-14T17:20:47.290848","PERIOD":"95.437","MEAN_ANOMALY":"269.6024","FILE":"3860643","INCLINATION":"53.2145","PERIAPSIS":"538.760","DECAY_DATE":null,"CLASSIFICATION_TYPE":"U","TLE_LINE1":"1 53992U 22125AE  23073.72276957  .00010825  00000-0  69711-3 0  9993","MEAN_MOTION_DDOT":"0.0000000000000","NORAD_CAT_ID":"53992","ECCENTRICITY":"0.00014020","OBJECT_TYPE":"PAYLOAD","SEMIMAJOR_AXIS":"6917.865","LAUNCH_DATE":"2022-10-05","RA_OF_ASC_NODE":"71.6544","MEAN_MOTION_DOT":"0.00010825","CENTER_NAME":"EARTH","SITE":"AFWTR","ELEMENT_SET_NO":"999","GP_ID":"228111394","COUNTRY_CODE":"US","MEAN_ELEMENT_THEORY":"SGP4","ARG_OF_PERICENTER":"90.5129","OBJECT_NAME":"STARLINK-5108","TLE_LINE2":"2 53992  53.2145  71.6544 0001402  90.5129 269.6024 15.08844913 24750","RCS_SIZE":"LARGE","BSTAR":"0.00069711000000","OBJECT_ID":"2022-125AE","TIME_SYSTEM":"UTC","MEAN_MOTION":"15.08844913","EPHEMERIS_TYPE":"0","REV_AT_EPOCH":"2475"}];
